{
  "type": "FeatureCollection",
  "features": [
    {
      "type": "Feature",
      "properties": {
        "name": "老门东实地调研轨迹",
        "source_coordinate_system": "WGS-84",
        "map_coordinate_system": "GCJ-02",
        "point_count": 317,
        "disclaimer": "实地调研记录，不是实时导航或推荐步行路线。"
      },
      "geometry": {
        "type": "LineString",
        "coordinates": [
          [
            118.788309,
            32.013604
          ],
          [
            118.788254,
            32.013411
          ],
          [
            118.788218,
            32.013323
          ],
          [
            118.78814,
            32.013141
          ],
          [
            118.788091,
            32.012994
          ],
          [
            118.788052,
            32.012909
          ],
          [
            118.788003,
            32.012781
          ],
          [
            118.78796,
            32.012659
          ],
          [
            118.787926,
            32.012572
          ],
          [
            118.787898,
            32.012459
          ],
          [
            118.787858,
            32.01233
          ],
          [
            118.787805,
            32.012178
          ],
          [
            118.787764,
            32.012089
          ],
          [
            118.787718,
            32.011974
          ],
          [
            118.787704,
            32.011869
          ],
          [
            118.787663,
            32.011746
          ],
          [
            118.787633,
            32.011646
          ],
          [
            118.78758,
            32.011513
          ],
          [
            118.787543,
            32.011362
          ],
          [
            118.787504,
            32.011243
          ],
          [
            118.787463,
            32.011121
          ],
          [
            118.787408,
            32.011007
          ],
          [
            118.787384,
            32.010915
          ],
          [
            118.787408,
            32.010771
          ],
          [
            118.787455,
            32.010685
          ],
          [
            118.787639,
            32.010633
          ],
          [
            118.787741,
            32.010598
          ],
          [
            118.787939,
            32.010523
          ],
          [
            118.788081,
            32.010469
          ],
          [
            118.788221,
            32.010409
          ],
          [
            118.788395,
            32.010337
          ],
          [
            118.788484,
            32.01028
          ],
          [
            118.788576,
            32.010202
          ],
          [
            118.788707,
            32.010139
          ],
          [
            118.788814,
            32.010105
          ],
          [
            118.788925,
            32.010067
          ],
          [
            118.789029,
            32.009999
          ],
          [
            118.788889,
            32.010094
          ],
          [
            118.788955,
            32.010235
          ],
          [
            118.788994,
            32.010325
          ],
          [
            118.789024,
            32.010412
          ],
          [
            118.789048,
            32.010507
          ],
          [
            118.789115,
            32.010595
          ],
          [
            118.789148,
            32.0107
          ],
          [
            118.789189,
            32.0108
          ],
          [
            118.789241,
            32.010892
          ],
          [
            118.789409,
            32.010836
          ],
          [
            118.789281,
            32.010883
          ],
          [
            118.789318,
            32.010992
          ],
          [
            118.789344,
            32.011122
          ],
          [
            118.789397,
            32.011201
          ],
          [
            118.789567,
            32.011164
          ],
          [
            118.789435,
            32.011198
          ],
          [
            118.789336,
            32.011232
          ],
          [
            118.789206,
            32.011253
          ],
          [
            118.789071,
            32.011292
          ],
          [
            118.788903,
            32.011345
          ],
          [
            118.788779,
            32.011377
          ],
          [
            118.788648,
            32.011415
          ],
          [
            118.788527,
            32.011447
          ],
          [
            118.788419,
            32.011473
          ],
          [
            118.788266,
            32.011504
          ],
          [
            118.788156,
            32.011535
          ],
          [
            118.788033,
            32.011571
          ],
          [
            118.787911,
            32.011592
          ],
          [
            118.787794,
            32.01163
          ],
          [
            118.787805,
            32.01175
          ],
          [
            118.787859,
            32.011898
          ],
          [
            118.787894,
            32.011997
          ],
          [
            118.787918,
            32.012113
          ],
          [
            118.787989,
            32.012259
          ],
          [
            118.788042,
            32.012347
          ],
          [
            118.788173,
            32.012381
          ],
          [
            118.788289,
            32.012381
          ],
          [
            118.78838,
            32.012477
          ],
          [
            118.788486,
            32.012452
          ],
          [
            118.788623,
            32.012434
          ],
          [
            118.788808,
            32.012386
          ],
          [
            118.78881,
            32.012251
          ],
          [
            118.788786,
            32.012159
          ],
          [
            118.78875,
            32.012062
          ],
          [
            118.788694,
            32.01197
          ],
          [
            118.788651,
            32.011859
          ],
          [
            118.788608,
            32.011749
          ],
          [
            118.788553,
            32.01166
          ],
          [
            118.788511,
            32.011565
          ],
          [
            118.788471,
            32.011444
          ],
          [
            118.788484,
            32.011321
          ],
          [
            118.788442,
            32.011214
          ],
          [
            118.788425,
            32.011094
          ],
          [
            118.788533,
            32.011145
          ],
          [
            118.788652,
            32.011035
          ],
          [
            118.788817,
            32.010995
          ],
          [
            118.788968,
            32.010959
          ],
          [
            118.789085,
            32.010931
          ],
          [
            118.789235,
            32.010884
          ],
          [
            118.7893,
            32.010965
          ],
          [
            118.789236,
            32.010868
          ],
          [
            118.789117,
            32.010915
          ],
          [
            118.788987,
            32.010948
          ],
          [
            118.788834,
            32.010992
          ],
          [
            118.788713,
            32.011024
          ],
          [
            118.788568,
            32.011073
          ],
          [
            118.788458,
            32.011091
          ],
          [
            118.788307,
            32.011114
          ],
          [
            118.788187,
            32.011159
          ],
          [
            118.788041,
            32.01119
          ],
          [
            118.787913,
            32.011218
          ],
          [
            118.787753,
            32.011227
          ],
          [
            118.787618,
            32.01126
          ],
          [
            118.787486,
            32.011223
          ],
          [
            118.787502,
            32.011111
          ],
          [
            118.787465,
            32.011005
          ],
          [
            118.787462,
            32.010887
          ],
          [
            118.787587,
            32.010873
          ],
          [
            118.78773,
            32.010828
          ],
          [
            118.787863,
            32.010789
          ],
          [
            118.788024,
            32.010754
          ],
          [
            118.788147,
            32.010706
          ],
          [
            118.788295,
            32.010677
          ],
          [
            118.788472,
            32.01062
          ],
          [
            118.788581,
            32.010609
          ],
          [
            118.788691,
            32.010592
          ],
          [
            118.788864,
            32.010558
          ],
          [
            118.78897,
            32.01053
          ],
          [
            118.789095,
            32.010547
          ],
          [
            118.789138,
            32.01069
          ],
          [
            118.789317,
            32.010652
          ],
          [
            118.789387,
            32.010735
          ],
          [
            118.789404,
            32.010623
          ],
          [
            118.789254,
            32.010659
          ],
          [
            118.789176,
            32.010761
          ],
          [
            118.789235,
            32.010872
          ],
          [
            118.789324,
            32.011015
          ],
          [
            118.789359,
            32.011105
          ],
          [
            118.789352,
            32.011211
          ],
          [
            118.789246,
            32.011243
          ],
          [
            118.789049,
            32.011294
          ],
          [
            118.78904,
            32.011196
          ],
          [
            118.789,
            32.011056
          ],
          [
            118.788895,
            32.010976
          ],
          [
            118.788785,
            32.010991
          ],
          [
            118.788676,
            32.010947
          ],
          [
            118.788671,
            32.01084
          ],
          [
            118.788633,
            32.010685
          ],
          [
            118.788488,
            32.010633
          ],
          [
            118.788384,
            32.010656
          ],
          [
            118.788174,
            32.010705
          ],
          [
            118.787965,
            32.010773
          ],
          [
            118.787846,
            32.010797
          ],
          [
            118.787744,
            32.010832
          ],
          [
            118.787608,
            32.010861
          ],
          [
            118.787401,
            32.010872
          ],
          [
            118.78729,
            32.01084
          ],
          [
            118.787157,
            32.010838
          ],
          [
            118.787,
            32.010828
          ],
          [
            118.786884,
            32.010817
          ],
          [
            118.78679,
            32.01086
          ],
          [
            118.786619,
            32.010901
          ],
          [
            118.78651,
            32.010913
          ],
          [
            118.786363,
            32.010942
          ],
          [
            118.786183,
            32.010997
          ],
          [
            118.786003,
            32.01104
          ],
          [
            118.785849,
            32.011093
          ],
          [
            118.785746,
            32.011137
          ],
          [
            118.785582,
            32.011184
          ],
          [
            118.785436,
            32.011259
          ],
          [
            118.785324,
            32.011268
          ],
          [
            118.785272,
            32.011347
          ],
          [
            118.78536,
            32.011402
          ],
          [
            118.785473,
            32.011452
          ],
          [
            118.78555,
            32.011602
          ],
          [
            118.785696,
            32.01157
          ],
          [
            118.785822,
            32.011504
          ],
          [
            118.785933,
            32.01144
          ],
          [
            118.786062,
            32.011388
          ],
          [
            118.786115,
            32.011482
          ],
          [
            118.786185,
            32.011555
          ],
          [
            118.786186,
            32.011645
          ],
          [
            118.786264,
            32.01176
          ],
          [
            118.786263,
            32.011851
          ],
          [
            118.786235,
            32.011718
          ],
          [
            118.786198,
            32.011577
          ],
          [
            118.786062,
            32.011381
          ],
          [
            118.785938,
            32.011448
          ],
          [
            118.786023,
            32.011363
          ],
          [
            118.786151,
            32.011344
          ],
          [
            118.786252,
            32.011286
          ],
          [
            118.786341,
            32.011225
          ],
          [
            118.786469,
            32.011208
          ],
          [
            118.786593,
            32.011172
          ],
          [
            118.7867,
            32.011151
          ],
          [
            118.786833,
            32.011123
          ],
          [
            118.786924,
            32.0112
          ],
          [
            118.786923,
            32.011079
          ],
          [
            118.787065,
            32.011075
          ],
          [
            118.786911,
            32.011087
          ],
          [
            118.786926,
            32.011267
          ],
          [
            118.786926,
            32.011358
          ],
          [
            118.786839,
            32.011411
          ],
          [
            118.786882,
            32.011549
          ],
          [
            118.786938,
            32.011641
          ],
          [
            118.786835,
            32.011711
          ],
          [
            118.786722,
            32.011596
          ],
          [
            118.786713,
            32.01149
          ],
          [
            118.786834,
            32.011412
          ],
          [
            118.786722,
            32.01143
          ],
          [
            118.786511,
            32.0115
          ],
          [
            118.786383,
            32.01147
          ],
          [
            118.786245,
            32.011355
          ],
          [
            118.786366,
            32.011241
          ],
          [
            118.786481,
            32.01122
          ],
          [
            118.786614,
            32.011189
          ],
          [
            118.786716,
            32.01116
          ],
          [
            118.786888,
            32.01114
          ],
          [
            118.786977,
            32.011087
          ],
          [
            118.787194,
            32.010998
          ],
          [
            118.787371,
            32.011014
          ],
          [
            118.787462,
            32.01115
          ],
          [
            118.787503,
            32.011251
          ],
          [
            118.787542,
            32.011425
          ],
          [
            118.787568,
            32.011514
          ],
          [
            118.787555,
            32.011648
          ],
          [
            118.787403,
            32.011693
          ],
          [
            118.787285,
            32.011686
          ],
          [
            118.787153,
            32.011735
          ],
          [
            118.787065,
            32.011795
          ],
          [
            118.786924,
            32.011812
          ],
          [
            118.786803,
            32.011861
          ],
          [
            118.786627,
            32.011894
          ],
          [
            118.786497,
            32.0119
          ],
          [
            118.78637,
            32.011937
          ],
          [
            118.786194,
            32.011949
          ],
          [
            118.786083,
            32.011977
          ],
          [
            118.785901,
            32.012015
          ],
          [
            118.785704,
            32.012024
          ],
          [
            118.785801,
            32.012115
          ],
          [
            118.785832,
            32.012297
          ],
          [
            118.785893,
            32.012405
          ],
          [
            118.786038,
            32.012434
          ],
          [
            118.786163,
            32.012443
          ],
          [
            118.786336,
            32.01243
          ],
          [
            118.786393,
            32.01253
          ],
          [
            118.78642,
            32.012621
          ],
          [
            118.786446,
            32.012764
          ],
          [
            118.786463,
            32.012868
          ],
          [
            118.786546,
            32.01297
          ],
          [
            118.786653,
            32.01311
          ],
          [
            118.786776,
            32.01319
          ],
          [
            118.786976,
            32.01319
          ],
          [
            118.787075,
            32.013145
          ],
          [
            118.787281,
            32.013094
          ],
          [
            118.787413,
            32.013062
          ],
          [
            118.787609,
            32.013072
          ],
          [
            118.787773,
            32.013052
          ],
          [
            118.787854,
            32.012938
          ],
          [
            118.787938,
            32.012869
          ],
          [
            118.787954,
            32.012763
          ],
          [
            118.787914,
            32.012625
          ],
          [
            118.787799,
            32.012529
          ],
          [
            118.787688,
            32.012536
          ],
          [
            118.787573,
            32.012577
          ],
          [
            118.787546,
            32.012454
          ],
          [
            118.787479,
            32.012317
          ],
          [
            118.787391,
            32.01222
          ],
          [
            118.787301,
            32.012142
          ],
          [
            118.787412,
            32.012137
          ],
          [
            118.787528,
            32.012122
          ],
          [
            118.787409,
            32.012145
          ],
          [
            118.787233,
            32.01216
          ],
          [
            118.787149,
            32.012077
          ],
          [
            118.787114,
            32.011946
          ],
          [
            118.787099,
            32.011801
          ],
          [
            118.787142,
            32.011968
          ],
          [
            118.787163,
            32.01207
          ],
          [
            118.787078,
            32.012228
          ],
          [
            118.786986,
            32.012274
          ],
          [
            118.786891,
            32.012367
          ],
          [
            118.78674,
            32.01239
          ],
          [
            118.786562,
            32.012336
          ],
          [
            118.786673,
            32.01227
          ],
          [
            118.786637,
            32.012131
          ],
          [
            118.786576,
            32.011983
          ],
          [
            118.786702,
            32.01186
          ],
          [
            118.786854,
            32.011838
          ],
          [
            118.787027,
            32.011822
          ],
          [
            118.78714,
            32.011947
          ],
          [
            118.787146,
            32.012037
          ],
          [
            118.787187,
            32.012136
          ],
          [
            118.787323,
            32.01214
          ],
          [
            118.787369,
            32.012253
          ],
          [
            118.787461,
            32.012312
          ],
          [
            118.787507,
            32.012429
          ],
          [
            118.787555,
            32.01251
          ],
          [
            118.787483,
            32.012604
          ],
          [
            118.787366,
            32.012622
          ],
          [
            118.787346,
            32.01272
          ],
          [
            118.787456,
            32.012624
          ],
          [
            118.78737,
            32.012711
          ],
          [
            118.787377,
            32.012834
          ],
          [
            118.787244,
            32.012894
          ],
          [
            118.78727,
            32.01305
          ],
          [
            118.787399,
            32.013039
          ],
          [
            118.787616,
            32.012978
          ],
          [
            118.787795,
            32.012957
          ],
          [
            118.787895,
            32.012914
          ],
          [
            118.788013,
            32.012791
          ],
          [
            118.788032,
            32.01269
          ],
          [
            118.788079,
            32.012561
          ],
          [
            118.788057,
            32.012449
          ],
          [
            118.788159,
            32.012403
          ],
          [
            118.788267,
            32.012363
          ],
          [
            118.788192,
            32.012213
          ],
          [
            118.7882,
            32.012066
          ],
          [
            118.788103,
            32.011939
          ],
          [
            118.787971,
            32.011893
          ],
          [
            118.787898,
            32.011965
          ]
        ]
      }
    }
  ]
}
